CCSDS_OMM_VERS = 2.0
CREATION_DATE  = 
ORIGINATOR     = 

OBJECT_NAME    = OKEAN-3
OBJECT_ID      = 1991-039A
CENTER_NAME    = EARTH
REF_FRAME      = TEME
TIME_SYSTEM    = UTC
MEAN_ELEMENT_THEORY = SGP/SGP4

EPOCH          = 2025-11-13T20:58:12.082080
MEAN_MOTION    = 15.03846018
ECCENTRICITY   = .00144784
INCLINATION    = 82.5158
RA_OF_ASC_NODE = 88.9788
ARG_OF_PERICENTER = 9.9797
MEAN_ANOMALY   = 350.1714

EPHEMERIS_TYPE = 0
CLASSIFICATION_TYPE = U
NORAD_CAT_ID   = 21397
ELEMENT_SET_NO = 999
REV_AT_EPOCH   = 84762
BSTAR          = .64390385E-3
MEAN_MOTION_DOT = .8907E-4
MEAN_MOTION_DDOT = 0

CCSDS_OMM_VERS = 2.0
CREATION_DATE  = 
ORIGINATOR     = 

OBJECT_NAME    = COSMOS 2151
OBJECT_ID      = 1991-042A
CENTER_NAME    = EARTH
REF_FRAME      = TEME
TIME_SYSTEM    = UTC
MEAN_ELEMENT_THEORY = SGP/SGP4

EPOCH          = 2025-11-14T06:21:21.831264
MEAN_MOTION    = 14.99542751
ECCENTRICITY   = .00142517
INCLINATION    = 82.4984
RA_OF_ASC_NODE = 194.9376
ARG_OF_PERICENTER = 88.3540
MEAN_ANOMALY   = 271.9316

EPHEMERIS_TYPE = 0
CLASSIFICATION_TYPE = U
NORAD_CAT_ID   = 21422
ELEMENT_SET_NO = 999
REV_AT_EPOCH   = 84589
BSTAR          = .33925624E-3
MEAN_MOTION_DOT = .4202E-4
MEAN_MOTION_DDOT = 0

CCSDS_OMM_VERS = 2.0
CREATION_DATE  = 
ORIGINATOR     = 

OBJECT_NAME    = SL-14 R/B
OBJECT_ID      = 1991-042B
CENTER_NAME    = EARTH
REF_FRAME      = TEME
TIME_SYSTEM    = UTC
MEAN_ELEMENT_THEORY = SGP/SGP4

EPOCH          = 2025-11-14T01:57:12.054528
MEAN_MOTION    = 14.81701786
ECCENTRICITY   = .00154949
INCLINATION    = 82.4920
RA_OF_ASC_NODE = 328.6014
ARG_OF_PERICENTER = 260.2328
MEAN_ANOMALY   = 99.7136

EPHEMERIS_TYPE = 0
CLASSIFICATION_TYPE = U
NORAD_CAT_ID   = 21423
ELEMENT_SET_NO = 999
REV_AT_EPOCH   = 83595
BSTAR          = .1263959E-3
MEAN_MOTION_DOT = .102E-4
MEAN_MOTION_DDOT = 0

CCSDS_OMM_VERS = 2.0
CREATION_DATE  = 
ORIGINATOR     = 

OBJECT_NAME    = ERS-1
OBJECT_ID      = 1991-050A
CENTER_NAME    = EARTH
REF_FRAME      = TEME
TIME_SYSTEM    = UTC
MEAN_ELEMENT_THEORY = SGP/SGP4

EPOCH          = 2025-11-14T00:38:42.032832
MEAN_MOTION    = 14.39333646
ECCENTRICITY   = .00319199
INCLINATION    = 98.7923
RA_OF_ASC_NODE = 328.3615
ARG_OF_PERICENTER = 183.5470
MEAN_ANOMALY   = 176.5495

EPHEMERIS_TYPE = 0
CLASSIFICATION_TYPE = U
NORAD_CAT_ID   = 21574
ELEMENT_SET_NO = 999
REV_AT_EPOCH   = 79909
BSTAR          = .30057727E-3
MEAN_MOTION_DOT = .893E-5
MEAN_MOTION_DDOT = 0

CCSDS_OMM_VERS = 2.0
CREATION_DATE  = 
ORIGINATOR     = 

OBJECT_NAME    = ARIANE 40 R/B
OBJECT_ID      = 1991-050F
CENTER_NAME    = EARTH
REF_FRAME      = TEME
TIME_SYSTEM    = UTC
MEAN_ELEMENT_THEORY = SGP/SGP4

EPOCH          = 2025-11-14T03:28:30.833184
MEAN_MOTION    = 14.42779377
ECCENTRICITY   = .00042244
INCLINATION    = 98.2209
RA_OF_ASC_NODE = 9.6020
ARG_OF_PERICENTER = 73.1641
MEAN_ANOMALY   = 287.0012

EPHEMERIS_TYPE = 0
CLASSIFICATION_TYPE = U
NORAD_CAT_ID   = 21610
ELEMENT_SET_NO = 999
REV_AT_EPOCH   = 80233
BSTAR          = .32501192E-3
MEAN_MOTION_DOT = .1042E-4
MEAN_MOTION_DDOT = 0

CCSDS_OMM_VERS = 2.0
CREATION_DATE  = 
ORIGINATOR     = 

OBJECT_NAME    = INTERCOSMOS 25
OBJECT_ID      = 1991-086A
CENTER_NAME    = EARTH
REF_FRAME      = TEME
TIME_SYSTEM    = UTC
MEAN_ELEMENT_THEORY = SGP/SGP4

EPOCH          = 2025-11-14T05:36:49.109472
MEAN_MOTION    = 12.11602633
ECCENTRICITY   = .14882788
INCLINATION    = 82.6080
RA_OF_ASC_NODE = 19.8064
ARG_OF_PERICENTER = 5.8485
MEAN_ANOMALY   = 355.7977

EPHEMERIS_TYPE = 0
CLASSIFICATION_TYPE = U
NORAD_CAT_ID   = 21819
ELEMENT_SET_NO = 999
REV_AT_EPOCH   = 48270
BSTAR          = .5567433E-3
MEAN_MOTION_DOT = .284E-4
MEAN_MOTION_DDOT = 0

CCSDS_OMM_VERS = 2.0
CREATION_DATE  = 
ORIGINATOR     = 

OBJECT_NAME    = SL-8 R/B
OBJECT_ID      = 1992-008B
CENTER_NAME    = EARTH
REF_FRAME      = TEME
TIME_SYSTEM    = UTC
MEAN_ELEMENT_THEORY = SGP/SGP4

EPOCH          = 2025-11-14T05:57:48.025728
MEAN_MOTION    = 13.75950288
ECCENTRICITY   = .00361517
INCLINATION    = 82.9282
RA_OF_ASC_NODE = 353.6394
ARG_OF_PERICENTER = 97.0784
MEAN_ANOMALY   = 332.9944

EPHEMERIS_TYPE = 0
CLASSIFICATION_TYPE = U
NORAD_CAT_ID   = 21876
ELEMENT_SET_NO = 999
REV_AT_EPOCH   = 69354
BSTAR          = .1652081E-3
MEAN_MOTION_DOT = .176E-5
MEAN_MOTION_DDOT = 0

CCSDS_OMM_VERS = 2.0
CREATION_DATE  = 
ORIGINATOR     = 

OBJECT_NAME    = SL-8 R/B
OBJECT_ID      = 1992-020B
CENTER_NAME    = EARTH
REF_FRAME      = TEME
TIME_SYSTEM    = UTC
MEAN_ELEMENT_THEORY = SGP/SGP4

EPOCH          = 2025-11-14T04:35:23.754624
MEAN_MOTION    = 13.75521905
ECCENTRICITY   = .00276174
INCLINATION    = 82.9312
RA_OF_ASC_NODE = 239.5146
ARG_OF_PERICENTER = 260.2637
MEAN_ANOMALY   = 210.5379

EPHEMERIS_TYPE = 0
CLASSIFICATION_TYPE = U
NORAD_CAT_ID   = 21938
ELEMENT_SET_NO = 999
REV_AT_EPOCH   = 68525
BSTAR          = .10439728E-3
MEAN_MOTION_DOT = .116E-5
MEAN_MOTION_DDOT = 0

CCSDS_OMM_VERS = 2.0
CREATION_DATE  = 
ORIGINATOR     = 

OBJECT_NAME    = USA 81
OBJECT_ID      = 1992-023A
CENTER_NAME    = EARTH
REF_FRAME      = TEME
TIME_SYSTEM    = UTC
MEAN_ELEMENT_THEORY = SGP/SGP4

EPOCH          = 2025-11-14T04:21:49.421664
MEAN_MOTION    = 14.32312288
ECCENTRICITY   = .00025897
INCLINATION    = 85.0108
RA_OF_ASC_NODE = 198.0426
ARG_OF_PERICENTER = 74.6743
MEAN_ANOMALY   = 285.4736

EPHEMERIS_TYPE = 0
CLASSIFICATION_TYPE = U
NORAD_CAT_ID   = 21949
ELEMENT_SET_NO = 999
REV_AT_EPOCH   = 7825
BSTAR          = .13826054E-3
MEAN_MOTION_DOT = .393E-5
MEAN_MOTION_DDOT = 0

CCSDS_OMM_VERS = 2.0
CREATION_DATE  = 
ORIGINATOR     = 

OBJECT_NAME    = COSMOS 2219
OBJECT_ID      = 1992-076A
CENTER_NAME    = EARTH
REF_FRAME      = TEME
TIME_SYSTEM    = UTC
MEAN_ELEMENT_THEORY = SGP/SGP4

EPOCH          = 2025-11-14T06:53:55.138272
MEAN_MOTION    = 14.14066998
ECCENTRICITY   = .00177693
INCLINATION    = 71.0612
RA_OF_ASC_NODE = 259.3057
ARG_OF_PERICENTER = 8.4458
MEAN_ANOMALY   = 351.6960

EPHEMERIS_TYPE = 0
CLASSIFICATION_TYPE = U
NORAD_CAT_ID   = 22219
ELEMENT_SET_NO = 999
REV_AT_EPOCH   = 70206
BSTAR          = .9721861E-4
MEAN_MOTION_DOT = .138E-5
MEAN_MOTION_DDOT = 0

CCSDS_OMM_VERS = 2.0
CREATION_DATE  = 
ORIGINATOR     = 

OBJECT_NAME    = SL-16 R/B
OBJECT_ID      = 1992-076B
CENTER_NAME    = EARTH
REF_FRAME      = TEME
TIME_SYSTEM    = UTC
MEAN_ELEMENT_THEORY = SGP/SGP4

EPOCH          = 2025-11-14T08:04:00.495840
MEAN_MOTION    = 14.16835819
ECCENTRICITY   = .00153095
INCLINATION    = 71.0003
RA_OF_ASC_NODE = 71.3603
ARG_OF_PERICENTER = 271.1174
MEAN_ANOMALY   = 152.2729

EPHEMERIS_TYPE = 0
CLASSIFICATION_TYPE = U
NORAD_CAT_ID   = 22220
ELEMENT_SET_NO = 999
REV_AT_EPOCH   = 70549
BSTAR          = -.9166395E-5
MEAN_MOTION_DOT = -.66E-6
MEAN_MOTION_DDOT = 0

CCSDS_OMM_VERS = 2.0
CREATION_DATE  = 
ORIGINATOR     = 

OBJECT_NAME    = COSMOS 2221
OBJECT_ID      = 1992-080A
CENTER_NAME    = EARTH
REF_FRAME      = TEME
TIME_SYSTEM    = UTC
MEAN_ELEMENT_THEORY = SGP/SGP4

EPOCH          = 2025-11-14T04:25:18.158880
MEAN_MOTION    = 14.95605930
ECCENTRICITY   = .00137738
INCLINATION    = 82.5070
RA_OF_ASC_NODE = 29.6499
ARG_OF_PERICENTER = 215.5630
MEAN_ANOMALY   = 144.4675

EPHEMERIS_TYPE = 0
CLASSIFICATION_TYPE = U
NORAD_CAT_ID   = 22236
ELEMENT_SET_NO = 999
REV_AT_EPOCH   = 76352
BSTAR          = .33926858E-3
MEAN_MOTION_DOT = .3797E-4
MEAN_MOTION_DDOT = 0

