OKEAN-3                 
1 21397U 91039A   25317.87375095  .00008907  00000+0  64390-3 0  9994
2 21397  82.5158  88.9788 0014478   9.9797 350.1714 15.03846018847620
COSMOS 2151             
1 21422U 91042A   25318.26483601  .00004202  00000+0  33926-3 0  9999
2 21422  82.4984 194.9376 0014251  88.3540 271.9316 14.99542751845898
SL-14 R/B               
1 21423U 91042B   25318.08138952  .00001020  00000+0  12640-3 0  9991
2 21423  82.4920 328.6014 0015494 260.2328  99.7136 14.81701786835957
ERS-1                   
1 21574U 91050A   25318.02687538  .00000893  00000+0  30058-3 0  9990
2 21574  98.7923 328.3615 0031919 183.5470 176.5495 14.39333646799091
ARIANE 40 R/B           
1 21610U 91050F   25318.14480131  .00001042  00000+0  32501-3 0  9996
2 21610  98.2209   9.6020 0004224  73.1641 287.0012 14.42779377802330
INTERCOSMOS 25          
1 21819U 91086A   25318.23390173  .00002840  00000+0  55674-3 0  9995
2 21819  82.6080  19.8064 1488278   5.8485 355.7977 12.11602633482702
SL-8 R/B                
1 21876U 92008B   25318.24847252  .00000176  00000+0  16521-3 0  9997
2 21876  82.9282 353.6394 0036151  97.0784 332.9944 13.75950288693540
SL-8 R/B                
1 21938U 92020B   25318.19124716  .00000116  00000+0  10440-3 0  9995
2 21938  82.9312 239.5146 0027617 260.2637 210.5379 13.75521905685250
USA 81                  
1 21949U 92023A   25318.18182201  .00000393  00000+0  13826-3 0  9990
2 21949  85.0108 198.0426 0002589  74.6743 285.4736 14.32312288 78255
COSMOS 2219             
1 22219U 92076A   25318.28744373  .00000138  00000+0  97219-4 0  9990
2 22219  71.0612 259.3057 0017769   8.4458 351.6960 14.14066998702068
SL-16 R/B               
1 22220U 92076B   25318.33611685 -.00000066  00000+0 -91664-5 0  9998
2 22220  71.0003  71.3603 0015309 271.1174 152.2729 14.16835819705491
COSMOS 2221             
1 22236U 92080A   25318.18423795  .00003797  00000+0  33927-3 0  9994
2 22236  82.5070  29.6499 0013773 215.5630 144.4675 14.95605930763527
